[{"OBJECT_NAME":"APRIZESAT 3","OBJECT_ID":"2009-041F","EPOCH":"2026-03-09T21:53:07.275264","MEAN_MOTION":14.95902996,"ECCENTRICITY":0.00628853,"INCLINATION":98.1904,"RA_OF_ASC_NODE":217.4844,"ARG_OF_PERICENTER":35.8471,"MEAN_ANOMALY":324.6944,"EPHEMERIS_TYPE":0,"CLASSIFICATION_TYPE":"U","NORAD_CAT_ID":35686,"ELEMENT_SET_NO":999,"REV_AT_EPOCH":90153,"BSTAR":0.00014818153,"MEAN_MOTION_DOT":1.656e-5,"MEAN_MOTION_DDOT":0},{"OBJECT_NAME":"STARLINK-5768","OBJECT_ID":"2023-090AW","EPOCH":"2026-03-09T22:00:01.999584","MEAN_MOTION":15.05043878,"ECCENTRICITY":5.701e-5,"INCLINATION":43.0013,"RA_OF_ASC_NODE":260.3035,"ARG_OF_PERICENTER":317.6018,"MEAN_ANOMALY":219.2642,"EPHEMERIS_TYPE":0,"CLASSIFICATION_TYPE":"U","NORAD_CAT_ID":57145,"ELEMENT_SET_NO":999,"REV_AT_EPOCH":572,"BSTAR":0.0053484962,"MEAN_MOTION_DOT":0.00077904,"MEAN_MOTION_DDOT":0}]
